{
  "type": "FeatureCollection",
  "features": [
    {
      "type": "Feature",
      "properties": {
        "norad_id": 24946,
        "name": "IRIDIUM 33",
        "group": "iridium-33-debris",
        "lat": 23.425130768047868,
        "lon": 69.12922526248617,
        "alt_km": 779.5765964985967,
        "timestamp": "2025-12-14T07:33:19.862986+00:00",
        "meta_object_name": "IRIDIUM 33",
        "meta_object_id": "1997-051C",
        "meta_epoch": "2025-12-13T16:23:05.671392",
        "meta_mean_motion": 14.35038386,
        "meta_eccentricity": 0.00071379,
        "meta_inclination": 86.3869,
        "meta_ra_of_asc_node": 67.8258,
        "meta_arg_of_pericenter": 196.9578,
        "meta_mean_anomaly": 163.138,
        "meta_ephemeris_type": 0,
        "meta_classification_type": "U",
        "meta_norad_cat_id": 24946,
        "meta_element_set_no": 999,
        "meta_rev_at_epoch": 47848,
        "meta_bstar": 0.00016842772,
        "meta_mean_motion_dot": 4.99e-06,
        "meta_mean_motion_ddot": 0,
        "tle_line1": "1 24946U 97051C   25347.68270453  .00000499  00000+0  16843-3 0  9999",
        "tle_line2": "2 24946  86.3869  67.8258 0007137 196.9578 163.1380 14.35038386478480"
      },
      "geometry": {
        "type": "Point",
        "coordinates": [
          69.12922526248617,
          23.425130768047868
        ]
      }
    },
    {
      "type": "Feature",
      "properties": {
        "norad_id": 33773,
        "name": "IRIDIUM 33 DEB",
        "group": "iridium-33-debris",
        "lat": 26.845878660082633,
        "lon": 61.74765012947635,
        "alt_km": 750.5030909991874,
        "timestamp": "2025-12-14T07:33:19.863031+00:00",
        "meta_object_name": "IRIDIUM 33 DEB",
        "meta_object_id": "1997-051L",
        "meta_epoch": "2025-12-13T16:27:19.396224",
        "meta_mean_motion": 14.43259986,
        "meta_eccentricity": 0.00125418,
        "meta_inclination": 86.4008,
        "meta_ra_of_asc_node": 60.1886,
        "meta_arg_of_pericenter": 143.6419,
        "meta_mean_anomaly": 216.5636,
        "meta_ephemeris_type": 0,
        "meta_classification_type": "U",
        "meta_norad_cat_id": 33773,
        "meta_element_set_no": 999,
        "meta_rev_at_epoch": 88361,
        "meta_bstar": 0.0004498521,
        "meta_mean_motion_dot": 1.534e-05,
        "meta_mean_motion_ddot": 0,
        "tle_line1": "1 33773U 97051L   25347.68564116  .00001534  00000+0  44985-3 0  9998",
        "tle_line2": "2 33773  86.4008  60.1886 0012541 143.6419 216.5636 14.43259986883617"
      },
      "geometry": {
        "type": "Point",
        "coordinates": [
          61.74765012947635,
          26.845878660082633
        ]
      }
    },
    {
      "type": "Feature",
      "properties": {
        "norad_id": 33775,
        "name": "IRIDIUM 33 DEB",
        "group": "iridium-33-debris",
        "lat": 78.97884620886474,
        "lon": -150.17564126156248,
        "alt_km": 739.6751940853765,
        "timestamp": "2025-12-14T07:33:19.863047+00:00",
        "meta_object_name": "IRIDIUM 33 DEB",
        "meta_object_id": "1997-051N",
        "meta_epoch": "2025-12-13T16:41:11.169024",
        "meta_mean_motion": 14.41471207,
        "meta_eccentricity": 0.00143873,
        "meta_inclination": 86.3637,
        "meta_ra_of_asc_node": 49.1458,
        "meta_arg_of_pericenter": 151.6847,
        "meta_mean_anomaly": 335.8707,
        "meta_ephemeris_type": 0,
        "meta_classification_type": "U",
        "meta_norad_cat_id": 33775,
        "meta_element_set_no": 999,
        "meta_rev_at_epoch": 88154,
        "meta_bstar": 0.00045297198,
        "meta_mean_motion_dot": 1.49e-05,
        "meta_mean_motion_ddot": 0,
        "tle_line1": "1 33775U 97051N   25347.69526816  .00001490  00000+0  45297-3 0  9994",
        "tle_line2": "2 33775  86.3637  49.1458 0014387 151.6847 335.8707 14.41471207881546"
      },
      "geometry": {
        "type": "Point",
        "coordinates": [
          -150.17564126156248,
          78.97884620886474
        ]
      }
    },
    {
      "type": "Feature",
      "properties": {
        "norad_id": 33776,
        "name": "IRIDIUM 33 DEB",
        "group": "iridium-33-debris",
        "lat": -47.935756010685886,
        "lon": 76.11851413478415,
        "alt_km": 777.4138401523269,
        "timestamp": "2025-12-14T07:33:19.863061+00:00",
        "meta_object_name": "IRIDIUM 33 DEB",
        "meta_object_id": "1997-051P",
        "meta_epoch": "2025-12-13T15:39:27.529344",
        "meta_mean_motion": 14.38237164,
        "meta_eccentricity": 0.00144453,
        "meta_inclination": 86.4038,
        "meta_ra_of_asc_node": 80.3927,
        "meta_arg_of_pericenter": 187.3853,
        "meta_mean_anomaly": 296.9447,
        "meta_ephemeris_type": 0,
        "meta_classification_type": "U",
        "meta_norad_cat_id": 33776,
        "meta_element_set_no": 999,
        "meta_rev_at_epoch": 88095,
        "meta_bstar": 0.00040992864,
        "meta_mean_motion_dot": 1.266e-05,
        "meta_mean_motion_ddot": 0,
        "tle_line1": "1 33776U 97051P   25347.65240196  .00001266  00000+0  40993-3 0  9994",
        "tle_line2": "2 33776  86.4038  80.3927 0014445 187.3853 296.9447 14.38237164880959"
      },
      "geometry": {
        "type": "Point",
        "coordinates": [
          76.11851413478415,
          -47.935756010685886
        ]
      }
    },
    {
      "type": "Feature",
      "properties": {
        "norad_id": 33777,
        "name": "IRIDIUM 33 DEB",
        "group": "iridium-33-debris",
        "lat": -18.06818020057769,
        "lon": -144.29783999176163,
        "alt_km": 709.7780090062151,
        "timestamp": "2025-12-14T07:33:19.863074+00:00",
        "meta_object_name": "IRIDIUM 33 DEB",
        "meta_object_id": "1997-051Q",
        "meta_epoch": "2025-12-13T15:47:59.127936",
        "meta_mean_motion": 14.55625093,
        "meta_eccentricity": 0.00052146,
        "meta_inclination": 86.3788,
        "meta_ra_of_asc_node": 34.8038,
        "meta_arg_of_pericenter": 244.6172,
        "meta_mean_anomaly": 115.4496,
        "meta_ephemeris_type": 0,
        "meta_classification_type": "U",
        "meta_norad_cat_id": 33777,
        "meta_element_set_no": 999,
        "meta_rev_at_epoch": 88547,
        "meta_bstar": 0.0010882245,
        "meta_mean_motion_dot": 4.769e-05,
        "meta_mean_motion_ddot": 0,
        "tle_line1": "1 33777U 97051Q   25347.65832324  .00004769  00000+0  10882-2 0  9999",
        "tle_line2": "2 33777  86.3788  34.8038 0005214 244.6172 115.4496 14.55625093885475"
      },
      "geometry": {
        "type": "Point",
        "coordinates": [
          -144.29783999176163,
          -18.06818020057769
        ]
      }
    },
    {
      "type": "Feature",
      "properties": {
        "norad_id": 33850,
        "name": "IRIDIUM 33 DEB",
        "group": "iridium-33-debris",
        "lat": 83.8951427152044,
        "lon": 66.2419824647765,
        "alt_km": 741.0900143639146,
        "timestamp": "2025-12-14T07:33:19.863086+00:00",
        "meta_object_name": "IRIDIUM 33 DEB",
        "meta_object_id": "1997-051T",
        "meta_epoch": "2025-12-13T15:03:41.991840",
        "meta_mean_motion": 14.42148428,
        "meta_eccentricity": 0.00123288,
        "meta_inclination": 86.3417,
        "meta_ra_of_asc_node": 29.798,
        "meta_arg_of_pericenter": 158.2918,
        "meta_mean_anomaly": 321.2422,
        "meta_ephemeris_type": 0,
        "meta_classification_type": "U",
        "meta_norad_cat_id": 33850,
        "meta_element_set_no": 999,
        "meta_rev_at_epoch": 88165,
        "meta_bstar": 0.00041544855,
        "meta_mean_motion_dot": 1.387e-05,
        "meta_mean_motion_ddot": 0,
        "tle_line1": "1 33850U 97051T   25347.62756935  .00001387  00000+0  41545-3 0  9995",
        "tle_line2": "2 33850  86.3417  29.7980 0012328 158.2918 321.2422 14.42148428881657"
      },
      "geometry": {
        "type": "Point",
        "coordinates": [
          66.2419824647765,
          83.8951427152044
        ]
      }
    },
    {
      "type": "Feature",
      "properties": {
        "norad_id": 33853,
        "name": "IRIDIUM 33 DEB",
        "group": "iridium-33-debris",
        "lat": -44.086337706272666,
        "lon": 173.00761104398583,
        "alt_km": 754.144088411219,
        "timestamp": "2025-12-14T07:33:19.863099+00:00",
        "meta_object_name": "IRIDIUM 33 DEB",
        "meta_object_id": "1997-051W",
        "meta_epoch": "2025-12-13T12:11:23.722944",
        "meta_mean_motion": 13.99070618,
        "meta_eccentricity": 0.02069945,
        "meta_inclination": 85.9998,
        "meta_ra_of_asc_node": 349.4749,
        "meta_arg_of_pericenter": 233.4348,
        "meta_mean_anomaly": 249.363,
        "meta_ephemeris_type": 0,
        "meta_classification_type": "U",
        "meta_norad_cat_id": 33853,
        "meta_element_set_no": 999,
        "meta_rev_at_epoch": 85356,
        "meta_bstar": 0.0028151646,
        "meta_mean_motion_dot": 4.91e-05,
        "meta_mean_motion_ddot": 0,
        "tle_line1": "1 33853U 97051W   25347.50791346  .00004910  00000+0  28152-2 0  9993",
        "tle_line2": "2 33853  85.9998 349.4749 0206994 233.4348 249.3630 13.99070618853567"
      },
      "geometry": {
        "type": "Point",
        "coordinates": [
          173.00761104398583,
          -44.086337706272666
        ]
      }
    }
  ]
}